{
  "type": "FeatureCollection",
  "features": [
    {
      "type": "Feature",
      "properties": {
        "norad_id": 15362,
        "name": "NOVA 3",
        "group": "nnss",
        "lat": 47.2787147167039,
        "lon": 80.29250623045704,
        "alt_km": 1153.5083515285605,
        "timestamp": "2025-12-03T10:52:57.721766+00:00",
        "meta_object_name": "NOVA 3",
        "meta_object_id": "1984-110A",
        "meta_epoch": "2025-12-02T20:45:05.345280",
        "meta_mean_motion": 13.2304265,
        "meta_eccentricity": 0.0031294,
        "meta_inclination": 90.1225,
        "meta_ra_of_asc_node": 80.4183,
        "meta_arg_of_pericenter": 359.6853,
        "meta_mean_anomaly": 124.5872,
        "meta_ephemeris_type": 0,
        "meta_classification_type": "U",
        "meta_norad_cat_id": 15362,
        "meta_element_set_no": 999,
        "meta_rev_at_epoch": 98568,
        "meta_bstar": 9.685e-05,
        "meta_mean_motion_dot": 4.9e-07,
        "meta_mean_motion_ddot": 0,
        "tle_line1": "1 15362U 84110A   25336.86464520  .00000049  00000+0  96850-4 0  9999",
        "tle_line2": "2 15362  90.1225  80.4183 0031294 359.6853 124.5872 13.23042650985681"
      },
      "geometry": {
        "type": "Point",
        "coordinates": [
          80.29250623045704,
          47.2787147167039
        ]
      }
    },
    {
      "type": "Feature",
      "properties": {
        "norad_id": 15935,
        "name": "OSCAR 30",
        "group": "nnss",
        "lat": 51.02912167091194,
        "lon": 99.49176955085889,
        "alt_km": 1051.743159953462,
        "timestamp": "2025-12-03T10:52:57.721777+00:00",
        "meta_object_name": "OSCAR 30",
        "meta_object_id": "1985-066A",
        "meta_epoch": "2025-12-03T02:29:29.514912",
        "meta_mean_motion": 13.36075851,
        "meta_eccentricity": 0.0169334,
        "meta_inclination": 90.1646,
        "meta_ra_of_asc_node": 99.6897,
        "meta_arg_of_pericenter": 110.8002,
        "meta_mean_anomaly": 61.2446,
        "meta_ephemeris_type": 0,
        "meta_classification_type": "U",
        "meta_norad_cat_id": 15935,
        "meta_element_set_no": 999,
        "meta_rev_at_epoch": 96324,
        "meta_bstar": 0.00022932,
        "meta_mean_motion_dot": 1.38e-06,
        "meta_mean_motion_ddot": 0,
        "tle_line1": "1 15935U 85066A   25337.10381383  .00000138  00000+0  22932-3 0  9997",
        "tle_line2": "2 15935  90.1646  99.6897 0169334 110.8002  61.2446 13.36075851963243"
      },
      "geometry": {
        "type": "Point",
        "coordinates": [
          99.49176955085889,
          51.02912167091194
        ]
      }
    },
    {
      "type": "Feature",
      "properties": {
        "norad_id": 15936,
        "name": "OSCAR 24",
        "group": "nnss",
        "lat": 46.51925874092041,
        "lon": -87.67041527445993,
        "alt_km": 998.0822780561812,
        "timestamp": "2025-12-03T10:52:57.721787+00:00",
        "meta_object_name": "OSCAR 24",
        "meta_object_id": "1985-066B",
        "meta_epoch": "2025-12-03T02:05:18.076128",
        "meta_mean_motion": 13.35933438,
        "meta_eccentricity": 0.0170368,
        "meta_inclination": 90.1786,
        "meta_ra_of_asc_node": 92.1347,
        "meta_arg_of_pericenter": 117.2859,
        "meta_mean_anomaly": 54.287,
        "meta_ephemeris_type": 0,
        "meta_classification_type": "U",
        "meta_norad_cat_id": 15936,
        "meta_element_set_no": 999,
        "meta_rev_at_epoch": 96514,
        "meta_bstar": 0.0001492,
        "meta_mean_motion_dot": 9.3e-07,
        "meta_mean_motion_ddot": 0,
        "tle_line1": "1 15936U 85066B   25337.08701477  .00000093  00000+0  14920-3 0  9993",
        "tle_line2": "2 15936  90.1786  92.1347 0170368 117.2859  54.2870 13.35933438965144"
      },
      "geometry": {
        "type": "Point",
        "coordinates": [
          -87.67041527445993,
          46.51925874092041
        ]
      }
    },
    {
      "type": "Feature",
      "properties": {
        "norad_id": 17070,
        "name": "POLAR BEAR",
        "group": "nnss",
        "lat": 83.95931704648439,
        "lon": 0.5313844654018254,
        "alt_km": 954.3674274580262,
        "timestamp": "2025-12-03T10:52:57.721798+00:00",
        "meta_object_name": "POLAR BEAR",
        "meta_object_id": "1986-088A",
        "meta_epoch": "2025-12-03T02:17:48.033312",
        "meta_mean_motion": 13.75247704,
        "meta_eccentricity": 0.0040265,
        "meta_inclination": 89.6181,
        "meta_ra_of_asc_node": 184.1593,
        "meta_arg_of_pericenter": 147.3527,
        "meta_mean_anomaly": 338.9119,
        "meta_ephemeris_type": 0,
        "meta_classification_type": "U",
        "meta_norad_cat_id": 17070,
        "meta_element_set_no": 999,
        "meta_rev_at_epoch": 95846,
        "meta_bstar": 0.00013942,
        "meta_mean_motion_dot": 1.46e-06,
        "meta_mean_motion_ddot": 0,
        "tle_line1": "1 17070U 86088A   25337.09569483  .00000146  00000+0  13942-3 0  9991",
        "tle_line2": "2 17070  89.6181 184.1593 0040265 147.3527 338.9119 13.75247704958463"
      },
      "geometry": {
        "type": "Point",
        "coordinates": [
          0.5313844654018254,
          83.95931704648439
        ]
      }
    },
    {
      "type": "Feature",
      "properties": {
        "norad_id": 18361,
        "name": "OSCAR 27",
        "group": "nnss",
        "lat": -72.51173153442738,
        "lon": 80.1132996707445,
        "alt_km": 1036.9327159125169,
        "timestamp": "2025-12-03T10:52:57.721816+00:00",
        "meta_object_name": "OSCAR 27",
        "meta_object_id": "1987-080A",
        "meta_epoch": "2025-12-03T00:31:38.067168",
        "meta_mean_motion": 13.44903447,
        "meta_eccentricity": 0.0102339,
        "meta_inclination": 90.3742,
        "meta_ra_of_asc_node": 78.9087,
        "meta_arg_of_pericenter": 252.0158,
        "meta_mean_anomaly": 106.9814,
        "meta_ephemeris_type": 0,
        "meta_classification_type": "U",
        "meta_norad_cat_id": 18361,
        "meta_element_set_no": 999,
        "meta_rev_at_epoch": 87426,
        "meta_bstar": 0.00020493,
        "meta_mean_motion_dot": 1.31e-06,
        "meta_mean_motion_ddot": 0,
        "tle_line1": "1 18361U 87080A   25337.02196837  .00000131  00000+0  20493-3 0  9993",
        "tle_line2": "2 18361  90.3742  78.9087 0102339 252.0158 106.9814 13.44903447874261"
      },
      "geometry": {
        "type": "Point",
        "coordinates": [
          80.1132996707445,
          -72.51173153442738
        ]
      }
    },
    {
      "type": "Feature",
      "properties": {
        "norad_id": 18362,
        "name": "OSCAR 29",
        "group": "nnss",
        "lat": -44.998999097869664,
        "lon": 79.7588594006807,
        "alt_km": 1040.6048088696543,
        "timestamp": "2025-12-03T10:52:57.721839+00:00",
        "meta_object_name": "OSCAR 29",
        "meta_object_id": "1987-080B",
        "meta_epoch": "2025-12-03T01:15:25.796160",
        "meta_mean_motion": 13.4444552,
        "meta_eccentricity": 0.0103681,
        "meta_inclination": 90.3756,
        "meta_ra_of_asc_node": 79.368,
        "meta_arg_of_pericenter": 275.3635,
        "meta_mean_anomaly": 258.9476,
        "meta_ephemeris_type": 0,
        "meta_classification_type": "U",
        "meta_norad_cat_id": 18362,
        "meta_element_set_no": 999,
        "meta_rev_at_epoch": 87379,
        "meta_bstar": 0.00016153,
        "meta_mean_motion_dot": 1.04e-06,
        "meta_mean_motion_ddot": 0,
        "tle_line1": "1 18362U 87080B   25337.05238190  .00000104  00000+0  16153-3 0  9994",
        "tle_line2": "2 18362  90.3756  79.3680 0103681 275.3635 258.9476 13.44445520873792"
      },
      "geometry": {
        "type": "Point",
        "coordinates": [
          79.7588594006807,
          -44.998999097869664
        ]
      }
    },
    {
      "type": "Feature",
      "properties": {
        "norad_id": 19070,
        "name": "OSCAR 23",
        "group": "nnss",
        "lat": -71.98025523428419,
        "lon": 17.09621990449484,
        "alt_km": 1140.7716684978914,
        "timestamp": "2025-12-03T10:52:57.721859+00:00",
        "meta_object_name": "OSCAR 23",
        "meta_object_id": "1988-033A",
        "meta_epoch": "2025-12-03T04:21:45.971712",
        "meta_mean_motion": 13.27784852,
        "meta_eccentricity": 0.0188735,
        "meta_inclination": 90.3224,
        "meta_ra_of_asc_node": 16.096,
        "meta_arg_of_pericenter": 206.5416,
        "meta_mean_anomaly": 221.5711,
        "meta_ephemeris_type": 0,
        "meta_classification_type": "U",
        "meta_norad_cat_id": 19070,
        "meta_element_set_no": 999,
        "meta_rev_at_epoch": 82126,
        "meta_bstar": 0.00021583,
        "meta_mean_motion_dot": 1.15e-06,
        "meta_mean_motion_ddot": 0,
        "tle_line1": "1 19070U 88033A   25337.18178208  .00000115  00000+0  21583-3 0  9992",
        "tle_line2": "2 19070  90.3224  16.0960 0188735 206.5416 221.5711 13.27784852821262"
      },
      "geometry": {
        "type": "Point",
        "coordinates": [
          17.09621990449484,
          -71.98025523428419
        ]
      }
    }
  ]
}